{
    "links": {
        "self": "http://www.neowsapp.com/rest/v1/neo/3837857?api_key=iIulBulltgU6a56xZRHN4H3l9WmuAYTsLGpBGhQ2"
    },
    "id": "3837857",
    "neo_reference_id": "3837857",
    "name": "(2019 AM11)",
    "designation": "2019 AM11",
    "nasa_jpl_url": "http://ssd.jpl.nasa.gov/sbdb.cgi?sstr=3837857",
    "absolute_magnitude_h": 24.3,
    "estimated_diameter": {
        "kilometers": {
            "estimated_diameter_min": 0.0366906138,
            "estimated_diameter_max": 0.0820427065
        },
        "meters": {
            "estimated_diameter_min": 36.6906137531,
            "estimated_diameter_max": 82.0427064882
        },
        "miles": {
            "estimated_diameter_min": 0.0227984834,
            "estimated_diameter_max": 0.0509789586
        },
        "feet": {
            "estimated_diameter_min": 120.3760332259,
            "estimated_diameter_max": 269.1689931548
        }
    },
    "is_potentially_hazardous_asteroid": false,
    "close_approach_data": [
        {
            "close_approach_date": "2018-12-31",
            "close_approach_date_full": "2018-Dec-31 15:13",
            "epoch_date_close_approach": 1546269180000,
            "relative_velocity": {
                "kilometers_per_second": "15.9451835036",
                "kilometers_per_hour": "57402.6606130381",
                "miles_per_hour": "35667.7809792514"
            },
            "miss_distance": {
                "astronomical": "0.0426551443",
                "lunar": "16.5928511327",
                "kilometers": "6381118.731822641",
                "miles": "3965043.3184528058"
            },
            "orbiting_body": "Earth"
        }
    ],
    "orbital_data": {
        "orbit_id": "1",
        "orbit_determination_date": "2019-01-15 08:42:04",
        "first_observation_date": "2019-01-11",
        "last_observation_date": "2019-01-15",
        "data_arc_in_days": 4,
        "observations_used": 14,
        "orbit_uncertainty": "9",
        "minimum_orbit_intersection": ".03382",
        "jupiter_tisserand_invariant": "3.111",
        "epoch_osculation": "2458495.5",
        "eccentricity": ".6742015872112223",
        "semi_major_axis": "2.488308314169391",
        "inclination": "3.467784402586815",
        "ascending_node_longitude": "62.82021717970109",
        "orbital_period": "1433.68820688632",
        "perihelion_distance": ".810686899285507",
        "perihelion_argument": "339.2989934909899",
        "aphelion_distance": "4.165929729053276",
        "perihelion_time": "2458447.300574534784",
        "mean_anomaly": "12.10290569744054",
        "mean_motion": ".2511006216490034",
        "equinox": "J2000",
        "orbit_class": {
            "orbit_class_type": "APO",
            "orbit_class_description": "Near-Earth asteroid orbits which cross the Earth’s orbit similar to that of 1862 Apollo",
            "orbit_class_range": "a (semi-major axis) > 1.0 AU; q (perihelion) < 1.017 AU"
        }
    },
    "is_sentry_object": false
}